# From  26, 114
D/1766 G1 (Helfenzrieder),e,8.716,93.542,175.687,2.72387,0.219242,0.8521363,285.682,11/25.0/2023,2000,g  9.0,4.0
# From  89, 256
D/1884 O1 (Barnard),e,9.3069,332.8950,339.8247,3.084148,0.1819706,0.57121398,219.1032,11/25.0/2023,2000,g  9.0,4.0
# From  89, 256
D/1886 K1 (Brooks),e,10.9262,39.1628,208.4368,3.551895,0.1472359,0.46835701,275.8858,11/25.0/2023,2000,g  9.0,4.0
# From CCO 8
D/1894 F1 (Denning),e,1.4230,297.3381,198.4068,3.825528,0.1317247,0.69388609,93.0026,11/25.0/2023,2000,g  9.0,4.0
# From  13, 428
D/1895 Q1 (Swift),e,13.5230,135.7877,199.2590,3.723121,0.1371966,0.62681610,270.7543,11/25.0/2023,2000,g  9.0,4.0
# From  114, 147
D/1918 W1 (Schorr),e,6.8224,75.9287,326.4443,4.154834,0.1163787,0.31786464,326.1261,11/25.0/2023,2000,g  9.0,4.0
# From MPC 4601
D/1952 B1 (Harrington-Wilson),e,11.1707,116.4077,5.0007,3.079291,0.1824013,0.62509717,89.1781,11/25.0/2023,2000,g  9.0,4.0
# From MPC 11152
D/1977 C1 (Skiff-Kosai),e,3.1989,80.2887,25.2187,3.827093,0.1316438,0.26882300,111.9331,11/25.0/2023,2000,g  9.0,4.0
# From NK 779
D/1978 R1 (Haneda-Campos),e,4.9452,66.4917,307.1740,3.455980,0.1534077,0.62935881,33.9583,11/25.0/2023,2000,g  9.0,4.0
# From MPC 23764
D/1993 F2-D (Shoemaker-Levy),e,40.9090,160.7159,223.7483,4.219214,0.1137252,0.33203751,1.3312,11/25.0/2023,2000,g  9.0,4.0
# From MPEC 2022-S20
C/1995 O1 (Hale-Bopp),e,89.4192,282.4009,130.2010,177.1820,0.0004179,0.99498622,0.0000,03/30.7777/1997,2000,g -2.0,4.0
# From NK 1615
P/1996 R2 (Lagerkvist),e,2.6000,40.0587,333.4156,3.773967,0.1344333,0.31458767,234.5517,11/25.0/2023,2000,g 11.5,4.0
# From MPC 75703
P/1998 VS24 (LINEAR),e,5.0282,159.0739,244.6951,4.523218,0.1024549,0.24361128,218.4387,11/25.0/2023,2000,g 13.0,2.0
# From NK 731
P/1999 RO28 (LONEOS),e,7.5673,137.8800,231.3121,3.426071,0.1554209,0.67246095,250.4123,11/25.0/2023,2000,g 20.0,2.0
# From MPC 75704
P/1999 XN120 (Catalina),e,5.0298,285.2633,161.6812,4.179079,0.1153674,0.21074552,272.4958,11/25.0/2023,2000,g 13.5,2.0
# From NK 744
P/2000 R2 (LINEAR),e,11.6833,160.2941,176.5923,3.468241,0.1525949,0.53101442,247.3690,11/25.0/2023,2000,g 18.0,4.0
# From MPC 43019
P/2001 H5 (NEAT),e,8.3683,328.6368,224.6842,6.095634,0.0654901,0.59830748,194.4311,11/25.0/2023,2000,g 12.0,4.0
# From MPC 75704
P/2001 Q6 (NEAT),e,56.9117,22.1938,42.9218,7.971524,0.0437917,0.82366803,355.8262,11/25.0/2023,2000,g 13.5,4.0
# From MPEC 2023-UR6
P/2002 EJ57 (LINEAR),e,4.9817,330.2710,167.2549,6.458871,0.0600439,0.59297094,119.2557,11/25.0/2023,2000,g 12.5,4.0
# From MPEC 2023-VM5
P/2002 T6 (NEAT-LINEAR),e,10.8563,206.0419,219.2088,7.797485,0.0452660,0.56557184,349.3572,11/25.0/2023,2000,g 10.5,4.0
# From MPC 75007
C/2002 VQ94 (LINEAR),e,70.7128,35.1647,99.8692,184.8470,0.0003922,0.96331669,2.5504,11/25.0/2023,2000,g  9.5,2.0
# From MPC 50354
P/2003 F2 (NEAT),e,11.6300,358.9730,192.2720,6.501053,0.0594605,0.54142332,87.6293,11/25.0/2023,2000,g 16.5,2.0
# From MPC 50139
P/2003 QX29 (NEAT),e,11.3972,264.5374,37.6719,8.007611,0.0434960,0.47196063,332.9856,11/25.0/2023,2000,g  8.5,4.0
# From MPC105235
P/2003 T12 (SOHO),e,11.0251,174.5837,219.7736,2.584590,0.2372010,0.77027684,307.3999,11/25.0/2023,2000,g 17.0,4.0
# From MPC 54558
P/2004 DO29 (Spacewatch-LINEAR),e,14.5284,147.3237,40.4745,7.305773,0.0499120,0.44188253,350.4617,11/25.0/2023,2000,g 13.5,2.0
# From MPEC 2022-YN2
P/2004 FY140 (LINEAR),e,2.1619,327.2732,254.1208,4.970168,0.0889503,0.19185276,254.5640,11/25.0/2023,2000,g 12.5,2.0
# From MPC 53304
P/2004 R3 (LINEAR-NEAT),e,12.7898,305.1337,37.5979,4.755337,0.0950456,0.25464792,75.7946,11/25.0/2023,2000,g 14.5,4.0
# From MPC 75705
P/2004 V5 (LINEAR-Hill),e,19.3482,47.7389,87.4488,8.007319,0.0434984,0.44634143,301.1010,11/25.0/2023,2000,g  8.0,4.0
# From MPC 75705
P/2004 V5-B (LINEAR-Hill),e,19.3482,47.7393,87.4518,8.007735,0.0434950,0.44636651,301.0638,11/25.0/2023,2000,g  8.0,4.0
# From MPC 54164
P/2005 E1 (Tubbiolo),e,4.2623,335.5275,193.8704,7.059075,0.0525512,0.37629898,3.0588,11/25.0/2023,2000,g 10.0,4.0
# From MPC 79019
P/2005 J1 (McNaught),e,31.7383,268.7981,338.9187,3.573308,0.1459145,0.56894447,273.1982,11/25.0/2023,2000,g 16.5,4.0
# From MPC 74246
P/2005 L1 (McNaught),e,7.6575,137.2884,151.7853,4.013147,0.1225961,0.22007453,90.9404,11/25.0/2023,2000,g  9.5,4.0
# From MPC 75706
P/2005 S2 (Skiff),e,3.1367,161.3626,229.6212,7.995706,0.0435932,0.19890166,277.8911,11/25.0/2023,2000,g  7.5,4.0
# From MPC 75706
P/2005 SB216 (LONEOS),e,24.1105,1.1275,83.2189,7.151574,0.0515349,0.46537926,319.7124,11/25.0/2023,2000,g 12.0,2.0
# From MPC 73461
P/2005 T3 (Read),e,6.2266,27.6671,6.7639,7.587265,0.0471603,0.17553068,313.1053,11/25.0/2023,2000,g  9.0,4.0
# From MPC 73461
P/2005 T4 (SWAN),e,60.2854,25.9449,41.8747,9.355777,0.0344417,0.92999634,227.7921,11/25.0/2023,2000,g 15.0,4.0
# From MPC 75706
P/2005 T5 (Broughton),e,21.3835,57.0687,304.7142,7.271329,0.0502670,0.55244683,331.4680,11/25.0/2023,2000,g 11.0,4.0
# From MPC 75707
P/2006 HR30 (Siding Spring),e,31.9072,309.8386,117.4014,7.804515,0.0452049,0.84354677,279.5430,11/25.0/2023,2000,g 11.0,4.0
# From MPC 75707
P/2007 C2 (Catalina),e,8.6123,275.2640,180.1555,7.006812,0.0531402,0.47289745,314.9343,11/25.0/2023,2000,g 10.0,4.0
# From MPC 84315
C/2007 D1 (LINEAR),e,41.5039,171.1808,339.7005,1144,0.0000255,0.99234128,0.0000,06/08.9236/2007,2000,g  3.5,4.0
# From MPC 82314
P/2007 K2 (Gibbs),e,7.6244,188.5876,347.3043,7.292487,0.0500484,0.68408639,303.5073,11/25.0/2023,2000,g 14.0,4.0
# From MPC 60925
P/2007 Q2 (Gilmore),e,10.2006,172.1918,162.8720,5.660430,0.0731863,0.66957389,80.0224,11/25.0/2023,2000,g 16.0,4.0
# From MPC 73462
P/2007 S1 (Zhao),e,5.9649,141.3317,245.2068,3.817063,0.1321631,0.33849255,54.7525,11/25.0/2023,2000,g 13.0,4.0
# From MPC 61994
P/2007 T2 (Kowalski),e,9.7508,3.3896,359.6709,3.044304,0.1855547,0.78566194,1.3699,11/25.0/2023,2000,g 18.5,4.0
# From MPC 64114
P/2008 O3 (Boattini),e,32.3296,47.6081,341.1713,8.211124,0.0418890,0.69664066,236.5240,11/25.0/2023,2000,g 13.0,4.0
# From MPC 75710
P/2008 Y3 (McNaught),e,38.7782,262.8311,238.0495,8.044970,0.0431934,0.44678949,235.7816,11/25.0/2023,2000,g  8.5,4.0
# From MPC 75710
P/2009 B1 (Boattini),e,22.2504,297.1045,128.9254,6.733933,0.0564028,0.63601618,306.5129,11/25.0/2023,2000,g 13.0,4.0
# From MPC 66466
C/2009 G1 (STEREO),e,8.5259,120.6964,175.5260,463.6751,0.0000987,0.99751054,0.0000,04/14.8327/2009,2000,g  9.0,4.0
# From MPC 75710
P/2009 O3 (Hill),e,16.2770,183.7098,154.4803,7.767327,0.0455299,0.68720059,240.8749,11/25.0/2023,2000,g 12.5,4.0
# From MPC 68902
P/2009 Q5 (McNaught),e,40.9831,160.2801,209.1474,7.426462,0.0487002,0.60983362,252.1917,11/25.0/2023,2000,g 10.0,4.0
# From MPC112389
P/2009 T2 (La Sagra),e,27.6166,216.3603,215.9059,7.714017,0.0460027,0.76716030,233.2930,11/25.0/2023,2000,g 14.0,4.0
# From MPC105235
P/2009 WX51 (Catalina),e,9.5926,31.5547,118.2552,3.082690,0.1820997,0.73933934,201.1430,11/25.0/2023,2000,g 19.0,2.0
# From MPC 74247
P/2009 Y2 (Kowalski),e,29.9702,262.0801,172.1513,6.546291,0.0588452,0.63729753,295.1116,11/25.0/2023,2000,g 13.0,4.0
# From MPC 75711
P/2010 A3 (Hill),e,14.8186,63.6492,42.2381,6.093005,0.0655325,0.73403137,329.0340,11/25.0/2023,2000,g 14.0,4.0
# From MPC 75008
P/2010 C1 (Scotti),e,9.1189,141.6557,3.1979,7.114644,0.0519367,0.26209096,268.0998,11/25.0/2023,2000,g  9.5,4.0
# From MPC 75008
P/2010 D2 (WISE),e,57.1149,319.8731,119.9341,6.721812,0.0565555,0.45171618,285.2262,11/25.0/2023,2000,g 16.0,4.0
# From MPC 75009
P/2010 E2 (Jarnac),e,15.3940,177.7956,8.2710,8.639367,0.0388134,0.71971213,194.0501,11/25.0/2023,2000,g 14.0,4.0
# From MPC 72851
P/2010 H2 (Vales),e,14.2795,64.1874,128.0417,3.831793,0.1314017,0.19714288,298.1512,11/25.0/2023,2000,g  6.0,4.0
# From MPC 70361
P/2010 H3 (SOHO),e,23.1368,77.1685,26.0734,3.036020,0.1863147,0.98548381,0.0000,05/25.1174/2026,2000,g 20.0,2.0
# From MPC 73463
P/2010 H4 (Scotti),e,2.3179,44.6171,179.1821,6.607828,0.0580251,0.26604942,286.2063,11/25.0/2023,2000,g 10.5,4.0
# From MPC 74637
P/2010 H5 (Scotti),e,14.0575,24.5910,174.6034,7.175392,0.0512785,0.15297268,257.0974,11/25.0/2023,2000,g 13.0,2.0
# From MPC 98558
P/2010 J3 (McMillan),e,13.2440,106.5099,157.5160,8.984797,0.0365967,0.72462262,177.3636,11/25.0/2023,2000,g 11.0,4.0
# From MPC 84315
P/2010 JC81 (WISE),e,38.8209,30.8795,12.4495,8.103602,0.0427255,0.77829500,196.1782,11/25.0/2023,2000,g  9.0,4.0
# From MPC 74248
P/2010 T2 (PANSTARRS),e,7.8903,57.9630,352.0299,5.634004,0.0737018,0.32933020,352.3609,11/25.0/2023,2000,g 11.5,4.0
# From MPEC 2023-O88
P/2010 TO20 (LINEAR-Grauer),e,2.4788,43.2723,267.8274,5.831845,0.0699834,0.05545343,25.0850,11/25.0/2023,2000,g  9.0,4.0
# From MPC 82316
P/2010 U1 (Boattini),e,8.2249,280.8045,86.3649,6.494687,0.0595479,0.24909238,299.3813,11/25.0/2023,2000,g  9.5,4.0
# From MPEC 2023-J95
C/2010 U3 (Boattini),e,55.5671,42.9872,88.0400,3956,0.0000040,0.99786689,0.0000,02/25.9992/2019,2000,g  1.0,4.0
# From MPC 79021
P/2010 UH55 (Spacewatch),e,8.0373,232.8988,225.1640,6.653210,0.0574324,0.56431621,265.1467,11/25.0/2023,2000,g 11.0,4.0
# From MPC 75009
P/2010 WK (LINEAR),e,11.4023,11.3437,40.9981,5.762281,0.0712545,0.69070688,342.9478,11/25.0/2023,2000,g 14.5,2.0
# From MPC 84021
P/2011 C2 (Gibbs),e,10.8881,11.9535,160.3853,7.412870,0.0488343,0.26969890,213.4573,11/25.0/2023,2000,g  9.0,4.0
# From MPC 79866
P/2011 FR143 (Lemmon),e,15.9730,190.8737,349.8443,6.869295,0.0547439,0.45142836,256.0029,11/25.0/2023,2000,g 14.0,2.0
# From MPC 82317
P/2011 JB15 (Spacewatch-Boattini),e,19.1346,153.5597,110.9645,7.373230,0.0492286,0.31493691,213.6196,11/25.0/2023,2000,g  9.0,4.0
# From MPC 87913
P/2011 N1 (ASH),e,35.7792,77.6274,330.4061,6.240154,0.0632282,0.54552429,265.3882,11/25.0/2023,2000,g 11.5,4.0
# From MPC 75714
P/2011 NO1 (Elenin),e,15.2453,295.8149,263.7176,5.536677,0.0756537,0.77485894,356.0696,11/25.0/2023,2000,g 15.0,4.0
# From MPEC 2022-ED3
P/2011 P1 (McNaught),e,5.6575,4.2906,349.1756,7.458126,0.0483904,0.32735756,235.1145,11/25.0/2023,2000,g  9.0,4.0
# From MPEC 2022-HC2
